10082,"{""name"": ""AYN RAND INSTITUTE THE CENTER FOR THE ADVANCEMENT OF OBJECTIVISM"", ""city"": ""SANTA ANA"", ""state"": ""CA"", ""zip"": ""92707""}"
10097,"{""name"": ""BILLY GRAHAM EVANGELISTIC ASSOCIATION"", ""city"": ""CHARLOTTE"", ""state"": ""NC"", ""zip"": ""28201""}"
10113,"{""name"": ""ASHLEYS KITTEN ACADEMY"", ""city"": ""MILL CREEK"", ""state"": ""WA"", ""zip"": ""98082""}"
10116,"{""name"": ""THE UNIVERSITY OF TEXAS MD ANDERSON CANCER CENTER"", ""city"": ""HOUSTON"", ""state"": ""TX"", ""zip"": ""77210""}"
10126,"{""name"": ""SOUTHWEST WILDLIFE CONSERVATION CENTER"", ""city"": ""SCOTTSDALE"", ""state"": ""AZ"", ""zip"": ""85255""}"
10127,"{""name"": ""AMERICAN RADIO RELAY LEAGUE INC"", ""city"": ""NEWINGTON"", ""state"": ""CT"", ""zip"": ""06111""}"
10175,"{""name"": ""SECOND CHANCE RESCUE INC"", ""city"": ""WHITESTONE"", ""state"": ""NY"", ""zip"": ""11357""}"
10210,"{""name"": ""ANIMAL HUMANE SOCIETY"", ""city"": ""MINNEAPOLIS"", ""state"": ""MN"", ""zip"": ""55422""}"
10218,"{""name"": ""TOGETHER WE RISE"", ""city"": ""BREA"", ""state"": ""CA"", ""zip"": ""92821""}"
10234,"{""name"": ""MR MO PROJECT SENIOR DOG RESCUE INC"", ""city"": ""CLIFTON PARK"", ""state"": ""NY"", ""zip"": ""12065""}"
10254,"{""name"": ""GIRLS INCORPORATED"", ""city"": ""NEW YORK"", ""state"": ""NY"", ""zip"": ""10005""}"
10305,"{""name"": ""QUEEN'S BEST STUMPY DOG RESCUE"", ""city"": ""N HOLLYWOOD"", ""state"": ""CA"", ""zip"": ""91601""}"
10340,"{""name"": ""WARRIOR DOG FOUNDATION"", ""city"": ""DALLAS"", ""state"": ""TX"", ""zip"": ""75230""}"
10364,"{""name"": ""GOATS OF ANARCHY INC"", ""city"": ""ANNANDALE"", ""state"": ""NJ"", ""zip"": ""08801""}"
10373,"{""name"": ""PLANNED PARENTHOOD SOUTH ATLANTIC"", ""city"": ""RALEIGH"", ""state"": ""NC"", ""zip"": ""27603""}"
10377,"{""name"": ""DOTERRA HEALING HANDS FOUNDATION"", ""city"": ""PLEASANT GROVE"", ""state"": ""UT"", ""zip"": ""84062""}"
10429,"{""name"": ""ONE TAIL AT A TIME"", ""city"": ""CHICAGO"", ""state"": ""IL"", ""zip"": ""60647""}"
10434,"{""name"": ""YESHIVA TIFERETH MOSHE INC"", ""city"": ""KEW GARDENS"", ""state"": ""NY"", ""zip"": ""11415""}"
10435,"{""name"": ""ROAD DOGS & RESCUE"", ""city"": ""LOMITA"", ""state"": ""CA"", ""zip"": ""90717""}"
10442,"{""name"": ""IDAHO HUMANE SOCIETY INC"", ""city"": ""BOISE"", ""state"": ""ID"", ""zip"": ""83709""}"
10472,"{""name"": ""LIONS TIGERS & BEARS"", ""city"": ""ALPINE"", ""state"": ""CA"", ""zip"": ""91901""}"
10472,"{""name"": ""EARTHJUSTICE"", ""city"": ""SAN FRANCISCO"", ""state"": ""CA"", ""zip"": ""94111""}"
10494,"{""name"": ""HEARTCRY MISSIONARY SOCIETY INC"", ""city"": ""RADFORD"", ""state"": ""VA"", ""zip"": ""24143""}"
10520,"{""name"": ""WILDLIFE SOS"", ""city"": ""SLC"", ""state"": ""UT"", ""zip"": ""84111""}"
10528,"{""name"": ""BACKCOUNTRY HUNTERS AND ANGLERS"", ""city"": ""MISSOULA"", ""state"": ""MT"", ""zip"": ""59807""}"
10552,"{""name"": ""THE SALVATION ARMY"", ""city"": ""WEST NYACK"", ""state"": ""NY"", ""zip"": ""10994""}"
10564,"{""name"": ""ELEVENTH HOUR RESCUE"", ""city"": ""ROCKAWAY"", ""state"": ""NJ"", ""zip"": ""07866""}"
10569,"{""name"": ""RESCUE DOGS ROCK INC"", ""city"": ""NEW YORK"", ""state"": ""NY"", ""zip"": ""10028""}"
10578,"{""name"": ""BLACK JAGUAR WHITE TIGER FOUNDATION"", ""city"": ""WOODLAND HILLS"", ""state"": ""CA"", ""zip"": ""91364""}"
10579,"{""name"": ""CHILDREN'S HEALTHCARE OF ATLANTA"", ""city"": ""ATLANTA"", ""state"": ""GA"", ""zip"": ""30329""}"
10589,"{""name"": ""NEW YORK BULLY CREW"", ""city"": ""EAST PATCHOGUE"", ""state"": ""NY"", ""zip"": ""11772""}"
10644,"{""name"": ""WILLIAMS SYNDROME ASSOCIATION INC"", ""city"": ""TROY"", ""state"": ""MI"", ""zip"": ""48084""}"
10647,"{""name"": ""AMERICAN LUNG ASSOCIATION"", ""city"": ""CHICAGO"", ""state"": ""IL"", ""zip"": ""60601""}"
10671,"{""name"": ""THORN"", ""city"": ""EL SEGUNDO"", ""state"": ""CA"", ""zip"": ""90245""}"
10703,"{""name"": ""CONGREGATION OHEL SARAH"", ""city"": ""CLEVELAND"", ""state"": ""OH"", ""zip"": ""44118""}"
10707,"{""name"": ""AMERICAN HUMANE"", ""city"": ""WASHINGTON"", ""state"": ""DC"", ""zip"": ""20036""}"
10714,"{""name"": ""SAN FRANCISCO SOCIETY FOR THE PREVENTION OF CRUELTY TO ANIMALS"", ""city"": ""SAN FRANCISCO"", ""state"": ""CA"", ""zip"": ""94103""}"
10720,"{""name"": ""LUTHERAN WORLD RELIEF INC"", ""city"": ""BALTIMORE"", ""state"": ""MD"", ""zip"": ""21230""}"
10744,"{""name"": ""ANIMAL RESCUE LEAGUE OF IOWA INC"", ""city"": ""DES MOINES"", ""state"": ""IA"", ""zip"": ""50313""}"
10763,"{""name"": ""NOW I LAY ME DOWN TO SLEEP"", ""city"": ""LITTLETON"", ""state"": ""CO"", ""zip"": ""80162""}"
10772,"{""name"": ""THE SATO PROJECT INC"", ""city"": ""BROOKLYN"", ""state"": ""NY"", ""zip"": ""11201""}"
10785,"{""name"": ""PLANNED PARENTHOOD OF MARYLAND INC"", ""city"": ""BALTIMORE"", ""state"": ""MD"", ""zip"": ""21201""}"
10796,"{""name"": ""HUMANE SOCIETY OF NORTH TEXAS"", ""city"": ""FORT WORTH"", ""state"": ""TX"", ""zip"": ""76103""}"
10846,"{""name"": ""GREEN BERET FOUNDATION"", ""city"": ""SAN ANTONIO"", ""state"": ""TX"", ""zip"": ""78216""}"
10872,"{""name"": ""ACCESS FUND"", ""city"": ""BOULDER"", ""state"": ""CO"", ""zip"": ""80308""}"
10881,"{""name"": ""SUCCESS ACADEMY CHARTER SCHOOLS"", ""city"": ""NEW YORK"", ""state"": ""NY"", ""zip"": ""10005""}"
10882,"{""name"": ""SENS FOUNDATION INC"", ""city"": ""MOUNTAIN VIEW"", ""state"": ""CA"", ""zip"": ""94041""}"
10885,"{""name"": ""HABITAT FOR HUMANITY INTERNATIONAL"", ""city"": ""AMERICUS"", ""state"": ""GA"", ""zip"": ""31709""}"
10903,"{""name"": ""NATIONAL CENTER FOR MISSING AND EXPLOITED CHILDREN"", ""city"": ""ALEXANDRIA"", ""state"": ""VA"", ""zip"": ""22314""}"
10935,"{""name"": ""CHILDREN'S HOSPITAL COLORADO FOUNDATION"", ""city"": ""AURORA"", ""state"": ""CO"", ""zip"": ""80045""}"
11002,"{""name"": ""FOUNDATION TO DECREASE WORLD SUCK"", ""city"": ""MISSOULA"", ""state"": ""MT"", ""zip"": ""59807""}"
11026,"{""name"": ""FROSTED FACES FOUNDATION INC"", ""city"": ""RAMONA"", ""state"": ""CA"", ""zip"": ""92065""}"
11082,"{""name"": ""FRIEDREICHS ATAXIA RESEARCH ALLIANCE FARA"", ""city"": ""DOWNINGTOWN"", ""state"": ""PA"", ""zip"": ""19335""}"
11100,"{""name"": ""MAKE-A-WISH AMERICA"", ""city"": ""PHOENIX"", ""state"": ""AZ"", ""zip"": ""85016""}"
11112,"{""name"": ""CAROLINA WATERFOWL RESCUE"", ""city"": ""INDIAN TRAIL"", ""state"": ""NC"", ""zip"": ""28079""}"
11114,"{""name"": ""PHILADELPHIA ANIMAL WELFARE SOCIETY"", ""city"": ""PHILADELPHIA"", ""state"": ""PA"", ""zip"": ""19106""}"
11127,"{""name"": ""FUNSEPA US"", ""city"": ""BEVERLY HILLS"", ""state"": ""CA"", ""zip"": ""90212""}"
11143,"{""name"": ""PLANNED PARENTHOOD LOS ANGELES"", ""city"": ""LOS ANGELES"", ""state"": ""CA"", ""zip"": ""90007""}"
11220,"{""name"": ""NARAL PRO-CHOICE AMERICA FOUNDATION"", ""city"": ""WASHINGTON"", ""state"": ""DC"", ""zip"": ""20006""}"
11301,"{""name"": ""CRU CAMPUS CRUSADE FOR CHRIST"", ""city"": ""ORLANDO"", ""state"": ""FL"", ""zip"": ""32832""}"
11314,"{""name"": ""LIFELINE ANIMAL PROJECT"", ""city"": ""ATLANTA"", ""state"": ""GA"", ""zip"": ""30340""}"
11343,"{""name"": ""GREATER CHICAGO FOOD DEPOSITORY"", ""city"": ""CHICAGO"", ""state"": ""IL"", ""zip"": ""60632""}"
11346,"{""name"": ""BARN SANCTUARY"", ""city"": ""CHELSEA"", ""state"": ""MI"", ""zip"": ""48118""}"
11355,"{""name"": ""MERCY SHIPS"", ""city"": ""LINDALE"", ""state"": ""TX"", ""zip"": ""75771""}"
11359,"{""name"": ""SACRED SELECTIONS"", ""city"": ""MURFREESBORO"", ""state"": ""TN"", ""zip"": ""37128""}"
11384,"{""name"": ""CAT ADOPTION TEAM"", ""city"": ""SHERWOOD"", ""state"": ""OR"", ""zip"": ""97140""}"
11396,"{""name"": ""REFUGEE & IMMIGRANT CENTER FOR EDUCATION & LEGAL SERVICES"", ""city"": ""SAN ANTONIO"", ""state"": ""TX"", ""zip"": ""78212""}"
11397,"{""name"": ""THE A21 CAMPAIGN INC"", ""city"": ""SANTA ANA"", ""state"": ""CA"", ""zip"": ""92704""}"
11450,"{""name"": ""CHARCOT-MARIE-TOOTH ASSOCIATION"", ""city"": ""GLENOLDEN"", ""state"": ""PA"", ""zip"": ""19036""}"
11473,"{""name"": ""MACS MISSION"", ""city"": ""CAPE GIRARDEAU"", ""state"": ""MO"", ""zip"": ""63702""}"
11490,"{""name"": ""BLACK GIRLS CODE INC"", ""city"": ""SAN FRANCISCO"", ""state"": ""CA"", ""zip"": ""94164""}"
11513,"{""name"": ""LOVE146"", ""city"": ""NEW HAVEN"", ""state"": ""CT"", ""zip"": ""06530""}"
11541,"{""name"": ""FRIENDS TO THE FORLORN PITBULL RESCUE INC"", ""city"": ""DALLAS"", ""state"": ""GA"", ""zip"": ""30132""}"
11610,"{""name"": ""SPERANZA ANIMAL RESCUE INC"", ""city"": ""MECHANICSBURG"", ""state"": ""PA"", ""zip"": ""17055""}"
11631,"{""name"": ""AMNESTY INTERNATIONAL USA INC"", ""city"": ""NEW YORK"", ""state"": ""NY"", ""zip"": ""10036""}"
11636,"{""name"": ""MILOS SANCTUARY AND SPECIAL NEEDS CAT RESCUE INC"", ""city"": ""BURBANK"", ""state"": ""CA"", ""zip"": ""91505""}"
11652,"{""name"": ""DALLAS DOG RESCUE REHAB REFORM"", ""city"": ""ALLEN"", ""state"": ""TX"", ""zip"": ""75013""}"
11659,"{""name"": ""ANSWERS IN GENESIS INC"", ""city"": ""HEBRON"", ""state"": ""KY"", ""zip"": ""41048""}"
11696,"{""name"": ""HUMANE SOCIETY SILICON VALLEY"", ""city"": ""MILPITAS"", ""state"": ""CA"", ""zip"": ""95035""}"
11720,"{""name"": ""ANSHEI CHESED INC"", ""city"": ""SUFFERN"", ""state"": ""NY"", ""zip"": ""10901""}"
11785,"{""name"": ""PURRFECT PALS"", ""city"": ""ARLINGTON"", ""state"": ""WA"", ""zip"": ""98223""}"
11798,"{""name"": ""YESHIVA OF FAR ROCKAWAY"", ""city"": ""FAR ROCKAWAY"", ""state"": ""NY"", ""zip"": ""11691""}"
11826,"{""name"": ""PLANNED PARENTHOOD GREAT PLAINS"", ""city"": ""OVERLAND PARK"", ""state"": ""KS"", ""zip"": ""66211""}"
11849,"{""name"": ""SJOGREN'S FOUNDATION"", ""city"": ""RESTON"", ""state"": ""VA"", ""zip"": ""20191""}"
11920,"{""name"": ""PALESTINE CHILDRENS RELIEF FUND"", ""city"": ""KENT"", ""state"": ""OH"", ""zip"": ""44240""}"
11931,"{""name"": ""LOVE ONE INTERNATIONAL"", ""city"": ""BRENTWOOD"", ""state"": ""TN"", ""zip"": ""37027""}"
11960,"{""name"": ""THE V FOUNDATION"", ""city"": ""CARY"", ""state"": ""NC"", ""zip"": ""27513""}"
11965,"{""name"": ""INSTITUTE FOR JUSTICE"", ""city"": ""ARLINGTON"", ""state"": ""VA"", ""zip"": ""22203""}"
11976,"{""name"": ""BIG GUY LITTLES WORLD SANCTUARY INC"", ""city"": ""BOONSBORO"", ""state"": ""MD"", ""zip"": ""21713""}"
12005,"{""name"": ""NATIONAL TUBEROUS SCLEROSIS ASSOCIATION INC"", ""city"": ""SILVER SPRING"", ""state"": ""MD"", ""zip"": ""20910""}"
12011,"{""name"": ""CHABAD LUBAVITCH OF THE BEACHES"", ""city"": ""LONG BEACH"", ""state"": ""NY"", ""zip"": ""11561""}"
12059,"{""name"": ""ANIMAL PROTECTIVE LEAGUE"", ""city"": ""CLEVELAND"", ""state"": ""OH"", ""zip"": ""44113""}"
12070,"{""name"": ""NEEMAS BAIS YAAKOV INC"", ""city"": ""LAKEWOOD"", ""state"": ""NJ"", ""zip"": ""08701""}"
12097,"{""name"": ""PLANNED PARENTHOOD SAN ANTONIO"", ""city"": ""SAN ANTONIO"", ""state"": ""TX"", ""zip"": ""78229""}"
12160,"{""name"": ""MICHIGAN HUMANE SOCIETY"", ""city"": ""BINGHAM FARMS"", ""state"": ""MI"", ""zip"": ""48025""}"
12216,"{""name"": ""PLANNED PARENTHOOD COLUMBIA WILLAMETTE"", ""city"": ""PORTLAND"", ""state"": ""OR"", ""zip"": ""97212""}"
12247,"{""name"": ""MISERICORDIA HOME"", ""city"": ""CHICAGO"", ""state"": ""IL"", ""zip"": ""60660""}"
12252,"{""name"": ""THE ROTARY FOUNDATION OF ROTARY INTERNATIONAL"", ""city"": ""EVANSTON"", ""state"": ""IL"", ""zip"": ""60201""}"
12264,"{""name"": ""HUMANE SOCIETY OF HURON VALLEY"", ""city"": ""ANN ARBOR"", ""state"": ""MI"", ""zip"": ""48105""}"
12312,"{""name"": ""PASADO'S SAFE HAVEN"", ""city"": ""SULTAN"", ""state"": ""WA"", ""zip"": ""98294""}"
12329,"{""name"": ""CALVARY CHAPEL CHINO HILLS"", ""city"": ""CHINO"", ""state"": ""CA"", ""zip"": ""91710""}"
12341,"{""name"": ""OVARIAN CANCER RESEARCH ALLIANCE"", ""city"": ""NEW YORK"", ""state"": ""NY"", ""zip"": ""10122""}"
12381,"{""name"": ""SAVEAFOX CORPORATION"", ""city"": ""LAKEVILLE"", ""state"": ""MN"", ""zip"": ""55044""}"
12416,"{""name"": ""RABBINICAL SEMINARY OF AMERICA"", ""city"": ""FLUSHING"", ""state"": ""NY"", ""zip"": ""11367""}"
12429,"{""name"": ""MISSIONINCUBATORS INC"", ""city"": ""LEXINGTON"", ""state"": ""SC"", ""zip"": ""29072""}"
12441,"{""name"": ""CANCER RESEARCH INSTITUTE INC"", ""city"": ""NEW YORK"", ""state"": ""NY"", ""zip"": ""10006""}"
12479,"{""name"": ""THE GENTLE BARN FOUNDATION"", ""city"": ""SANTA CLARITA"", ""state"": ""CA"", ""zip"": ""91390""}"
12495,"{""name"": ""RACE TO ERASE MS"", ""city"": ""LOS ANGELES"", ""state"": ""CA"", ""zip"": ""90067""}"
12549,"{""name"": ""SACRAMENTO SOCIETY FOR THE PREVENTION OF CRUELTY TO ANIMALS"", ""city"": ""SACRAMENTO"", ""state"": ""CA"", ""zip"": ""95828""}"
12625,"{""name"": ""ANIMAL WELFARE INSTITUTE"", ""city"": ""WASHINGTON"", ""state"": ""DC"", ""zip"": ""20003""}"
12637,"{""name"": ""NOAH'S ARK ANIMAL REHABILITATION CENTER AND SANCTUARY INC"", ""city"": ""LOCUST GROVE"", ""state"": ""GA"", ""zip"": ""30248""}"
12683,"{""name"": ""HAWAIIAN HUMANE SOCIETY"", ""city"": ""HONOLULU"", ""state"": ""HI"", ""zip"": ""96826""}"
12726,"{""name"": ""UNION OF CONCERNED SCIENTISTS INC"", ""city"": ""CAMBRIDGE"", ""state"": ""MA"", ""zip"": ""02138""}"
12726,"{""name"": ""ATLANTA HUMANE SOCIETY & SOCIETY FOR PREVENTION OF CRUELTY TO ANIMALS OF GE"", ""city"": ""ATLANTA"", ""state"": ""GA"", ""zip"": ""30318""}"
12745,"{""name"": ""PROGRESSIVE ANIMAL WELFARE SOCIETY INC"", ""city"": ""LYNNWOOD"", ""state"": ""WA"", ""zip"": ""98046""}"
12767,"{""name"": ""PLANNED PARENTHOOD MINNESOTA NORTH DAKOTA SOUTH DAKOTA"", ""city"": ""ST PAUL"", ""state"": ""MN"", ""zip"": ""55114""}"
12785,"{""name"": ""THE ORA LEE SMITH CANCER RESEARCH FOUNDATION"", ""city"": ""ATLANTA"", ""state"": ""GA"", ""zip"": ""30310""}"
12827,"{""name"": ""TERRITORIO DE ZAGUATES INC"", ""city"": ""GREENVALE"", ""state"": ""NY"", ""zip"": ""11548""}"
12968,"{""name"": ""HUMANE SOCIETY OF TAMPA BAY INC"", ""city"": ""TAMPA"", ""state"": ""FL"", ""zip"": ""33607""}"
13009,"{""name"": ""BIBLE STUDY FELLOWSHIP"", ""city"": ""SAN ANTONIO"", ""state"": ""TX"", ""zip"": ""78258""}"
13036,"{""name"": ""ORGANIZATION FOR TRANSFORMATIVE WORKS"", ""city"": ""NEW YORK"", ""state"": ""NY"", ""zip"": ""10003""}"
13062,"{""name"": ""ALZHEIMER'S RESEARCH FOUNDATION FISHER CENTER"", ""city"": ""NEW YORK"", ""state"": ""NY"", ""zip"": ""10150""}"
13083,"{""name"": ""OXFAM-AMERICA INC"", ""city"": ""BOSTON"", ""state"": ""MA"", ""zip"": ""02114""}"
13085,"{""name"": ""NORTH TEXAS FOOD BANK"", ""city"": ""PLANO"", ""state"": ""TX"", ""zip"": ""75075""}"
13100,"{""name"": ""HSLDA"", ""city"": ""PURCELLVILLE"", ""state"": ""VA"", ""zip"": ""20134""}"
13103,"{""name"": ""HOMES FOR OUR TROOPS"", ""city"": ""TAUNTON"", ""state"": ""MA"", ""zip"": ""02780""}"
13122,"{""name"": ""ST BALDRICK'S FOUNDATION"", ""city"": ""MONROVIA"", ""state"": ""CA"", ""zip"": ""91016""}"
13214,"{""name"": ""DOWN SYNDROME FOUNDATION OF FLORIDA"", ""city"": ""ORLANDO"", ""state"": ""FL"", ""zip"": ""32853""}"
13238,"{""name"": ""ST JOSEPH'S INDIAN SCHOOL"", ""city"": ""CHAMBERLAIN"", ""state"": ""SD"", ""zip"": ""57325""}"
13252,"{""name"": ""WATERORG"", ""city"": ""KANSAS CITY"", ""state"": ""MO"", ""zip"": ""64108""}"
13315,"{""name"": ""DV FARM INC"", ""city"": ""GILSUM"", ""state"": ""NH"", ""zip"": ""03448""}"
13322,"{""name"": ""RIC O'BARRY'S DOLPHIN PROJECT INC"", ""city"": ""SANTA MONICA"", ""state"": ""CA"", ""zip"": ""90405""}"
13327,"{""name"": ""ANIMAL LEGAL DEFENSE FUND"", ""city"": ""COTATI"", ""state"": ""CA"", ""zip"": ""94931""}"
13418,"{""name"": ""STAND UP FOR PITS FOUNDATION INC"", ""city"": ""WEST HOLLYWOOD"", ""state"": ""CA"", ""zip"": ""90046""}"
13418,"{""name"": ""AMERICAN BRAIN TUMOR ASSOCIATION"", ""city"": ""CHICAGO"", ""state"": ""IL"", ""zip"": ""60631""}"
13488,"{""name"": ""CALIFORNIA GUN RIGHTS FOUNDATION"", ""city"": ""LAS VEGAS"", ""state"": ""NV"", ""zip"": ""89149""}"
13520,"{""name"": ""MOOSEHEART CHILD CITY & SCHOOL INC"", ""city"": ""MOOSEHEART"", ""state"": ""IL"", ""zip"": ""60539""}"
13585,"{""name"": ""PET ALLIANCE OF GREATER ORLANDO"", ""city"": ""ORLANDO"", ""state"": ""FL"", ""zip"": ""32801""}"
13619,"{""name"": ""SIGNAL TECHNOLOGY FOUNDATION"", ""city"": ""MOUNTAIN VIEW"", ""state"": ""CA"", ""zip"": ""94041""}"
13759,"{""name"": ""ETERNAL WORD TELEVISION NETWORK INC"", ""city"": ""IRONDALE"", ""state"": ""AL"", ""zip"": ""35210""}"
13786,"{""name"": ""PLANNED PARENTHOOD GULF COAST INC"", ""city"": ""HOUSTON"", ""state"": ""TX"", ""zip"": ""77023""}"
13799,"{""name"": ""FOUNDATION FIGHTING BLINDNESS INC"", ""city"": ""COLUMBIA"", ""state"": ""MD"", ""zip"": ""21045""}"
13889,"{""name"": ""DONORSCHOOSE"", ""city"": ""NEW YORK"", ""state"": ""NY"", ""zip"": ""10018""}"
13906,"{""name"": ""INTERNATIONAL RETT SYNDROME FOUNDATION"", ""city"": ""CINCINNATI"", ""state"": ""OH"", ""zip"": ""45246""}"
13962,"{""name"": ""ASSOCIATION OF VOLUNTEERS IN INTERNATIONAL SERVICE USA INC"", ""city"": ""SILVER SPRING"", ""state"": ""MD"", ""zip"": ""20910""}"
14101,"{""name"": ""ARIZONA ANIMAL WELFARE LEAGUE"", ""city"": ""PHOENIX"", ""state"": ""AZ"", ""zip"": ""85034""}"
14107,"{""name"": ""TRIO ANIMAL FOUNDATION"", ""city"": ""CHICAGO"", ""state"": ""IL"", ""zip"": ""60642""}"
14145,"{""name"": ""COLOR OF CHANGE EDUCATION FUND INC"", ""city"": ""OAKLAND"", ""state"": ""CA"", ""zip"": ""94612""}"
14202,"{""name"": ""FRIENDS OF THE ISRAEL DEFENSE FORCES"", ""city"": ""NEW YORK"", ""state"": ""NY"", ""zip"": ""10165""}"
14208,"{""name"": ""EVERYTOWN FOR GUN SAFETY SUPPORT FUND"", ""city"": ""NEW YORK"", ""state"": ""NY"", ""zip"": ""10163""}"
14208,"{""name"": ""DIRECT RELIEF"", ""city"": ""SANTA BARBARA"", ""state"": ""CA"", ""zip"": ""93117""}"
14226,"{""name"": ""YESHIVA YAGDIL TORAH"", ""city"": ""BROOKLYN"", ""state"": ""NY"", ""zip"": ""11204""}"
14285,"{""name"": ""SKYDOG SANCTUARY"", ""city"": ""MALIBU"", ""state"": ""CA"", ""zip"": ""90265""}"
14377,"{""name"": ""IDIOTS FOR UNDERDOGS INC"", ""city"": ""GRAND RAPIDS"", ""state"": ""MI"", ""zip"": ""49503""}"
14423,"{""name"": ""EPILEPSY FOUNDATION OF AMERICA"", ""city"": ""BOWIE"", ""state"": ""MD"", ""zip"": ""20716""}"
14424,"{""name"": ""SOUTHERN CALIFORNIA BULLDOG RESCUE INC"", ""city"": ""SANTA ANA"", ""state"": ""CA"", ""zip"": ""92711""}"
14494,"{""name"": ""NRA FREEDOM ACTION FOUNDATION"", ""city"": ""FAIRFAX"", ""state"": ""VA"", ""zip"": ""22030""}"
14500,"{""name"": ""DEFENDERS OF WILDLIFE"", ""city"": ""WASHINGTON"", ""state"": ""DC"", ""zip"": ""20036""}"
14564,"{""name"": ""HOUSTON SOCIETY FOR THE PREVENTION OF CRUELTY TO ANIMALS"", ""city"": ""HOUSTON"", ""state"": ""TX"", ""zip"": ""77024""}"
14590,"{""name"": ""ALLEY CAT ALLIES INC"", ""city"": ""BETHESDA"", ""state"": ""MD"", ""zip"": ""20814""}"
14655,"{""name"": ""SAVE THE MANATEE CLUB INC"", ""city"": ""MAITLAND"", ""state"": ""FL"", ""zip"": ""32751""}"
14717,"{""name"": ""RANCHO RELAXO INC"", ""city"": ""WOODSTOWN"", ""state"": ""NJ"", ""zip"": ""08098""}"
14798,"{""name"": ""AMERICAN CENTER FOR LAW AND JUSTICE INC"", ""city"": ""VIRGINIA BEACH"", ""state"": ""VA"", ""zip"": ""23464""}"
14829,"{""name"": ""INFORMED CONSENT ACTION NETWORK"", ""city"": ""AUSTIN"", ""state"": ""TX"", ""zip"": ""78705""}"
14846,"{""name"": ""CURE SMA"", ""city"": ""ELK GROVE VILLAGE"", ""state"": ""IL"", ""zip"": ""60007""}"
14878,"{""name"": ""CHILDREN'S HOSPITAL CORPORATION DBA CHILDREN'S HOSPITAL BOSTON"", ""city"": ""BOSTON"", ""state"": ""MA"", ""zip"": ""02115""}"
14903,"{""name"": ""SURFRIDER FOUNDATION"", ""city"": ""SAN CLEMENTE"", ""state"": ""CA"", ""zip"": ""92673""}"
14953,"{""name"": ""UNITED METHODIST COMMITTEE ON RELIEF"", ""city"": ""ATLANTA"", ""state"": ""GA"", ""zip"": ""30308""}"
14969,"{""name"": ""CHILDREN'S HOSPITAL LOS ANGELES"", ""city"": ""LOS ANGELES"", ""state"": ""CA"", ""zip"": ""90027""}"
15034,"{""name"": ""FUND TEXAS CHOICE"", ""city"": ""AUSTIN"", ""state"": ""TX"", ""zip"": ""78704""}"
15048,"{""name"": ""GIVEWELL"", ""city"": ""OAKLAND"", ""state"": ""CA"", ""zip"": ""94612""}"
15074,"{""name"": ""BE LIKE JOSH FOUNDATION"", ""city"": ""CHANDLER"", ""state"": ""AZ"", ""zip"": ""85246""}"
15078,"{""name"": ""MARYS PLACE SEATTLE"", ""city"": ""SEATTLE"", ""state"": ""WA"", ""zip"": ""98111""}"
15100,"{""name"": ""SPCA OF TEXAS"", ""city"": ""DALLAS"", ""state"": ""TX"", ""zip"": ""75212""}"
15104,"{""name"": ""BAPS CHARITIES INC"", ""city"": ""WINDSOR"", ""state"": ""NJ"", ""zip"": ""08561""}"
15145,"{""name"": ""PLANNED PARENTHOOD OF WISCONSIN INC"", ""city"": ""MILWAUKEE"", ""state"": ""WI"", ""zip"": ""53202""}"
15152,"{""name"": ""EAGLE MOUNTAIN INTERNATIONAL CHURCH INC"", ""city"": ""NEWARK"", ""state"": ""TX"", ""zip"": ""76071""}"
15265,"{""name"": ""SPECIAL OPERATIONS WARRIOR FOUNDATION"", ""city"": ""TAMPA"", ""state"": ""FL"", ""zip"": ""33689""}"
15277,"{""name"": ""CONVOY OF HOPE"", ""city"": ""SPRINGFIELD"", ""state"": ""MO"", ""zip"": ""65802""}"
15299,"{""name"": ""PLANNED PARENTHOOD OF ILLINOIS"", ""city"": ""CHICAGO"", ""state"": ""IL"", ""zip"": ""60602""}"
15377,"{""name"": ""INNOCENCE PROJECT INC"", ""city"": ""NEW YORK"", ""state"": ""NY"", ""zip"": ""10013""}"
15385,"{""name"": ""WISCONSIN HUMANE SOCIETY"", ""city"": ""MILWAUKEE"", ""state"": ""WI"", ""zip"": ""53208""}"
15412,"{""name"": ""HOUSTON PUBLIC MEDIA FOUNDATION"", ""city"": ""HOUSTON"", ""state"": ""TX"", ""zip"": ""77523""}"
15461,"{""name"": ""GUIDE DOGS FOR THE BLIND INC"", ""city"": ""SAN RAFAEL"", ""state"": ""CA"", ""zip"": ""94915""}"
15556,"{""name"": ""TEAM RUBICON"", ""city"": ""LOS ANGELES"", ""state"": ""CA"", ""zip"": ""90045""}"
15557,"{""name"": ""CONGREGATION ROSH HAGIVAH INC"", ""city"": ""WATERBURY"", ""state"": ""CT"", ""zip"": ""06710""}"
15564,"{""name"": ""TRUTH FOR LIFE"", ""city"": ""CLEVELAND"", ""state"": ""OH"", ""zip"": ""44139""}"
15615,"{""name"": ""CHILDREN'S MIRACLE NETWORK"", ""city"": ""SALT LAKE CITY"", ""state"": ""UT"", ""zip"": ""84101""}"
15667,"{""name"": ""DETROIT DOG RESCUE"", ""city"": ""ST CLAIR SHORES"", ""state"": ""MI"", ""zip"": ""48080""}"
15862,"{""name"": ""ALZHEIMERS DISEASE RESEARCH FOUNDATION DBA CURE ALZHEIMER'S FUND"", ""city"": ""WELLESLEY HILLS"", ""state"": ""MA"", ""zip"": ""02481""}"
15875,"{""name"": ""CHILDRENS HOSPITAL OF PHILADELPHIA"", ""city"": ""PHILADELPHIA"", ""state"": ""PA"", ""zip"": ""19104""}"
15891,"{""name"": ""NUTRITIONFACTS ORG INC"", ""city"": ""TAKOMA PARK"", ""state"": ""MD"", ""zip"": ""20913""}"
15977,"{""name"": ""ROFEH CHOLIM CANCER SOCIETY INC"", ""city"": ""BROOKLYN"", ""state"": ""NY"", ""zip"": ""11205""}"
16077,"{""name"": ""NO KID HUNGRY BY SHARE OUR STRENGTH"", ""city"": ""WASHINGTON"", ""state"": ""DC"", ""zip"": ""20005""}"
16085,"{""name"": ""SOI DOG FOUNDATION USA"", ""city"": ""HOUSTON"", ""state"": ""TX"", ""zip"": ""77043""}"
16102,"{""name"": ""KANSAS CITY PET PROJECT"", ""city"": ""KANSAS CITY"", ""state"": ""MO"", ""zip"": ""64132""}"
16229,"{""name"": ""ANGELS AMONG US PET RESCUE INC"", ""city"": ""ALPHARETTA"", ""state"": ""GA"", ""zip"": ""30009""}"
16314,"{""name"": ""FOOD ALLERGY RESEARCH & EDUCATION"", ""city"": ""MCLEAN"", ""state"": ""VA"", ""zip"": ""22102""}"
16351,"{""name"": ""HUNTINGTON'S DISEASE SOCIETY OF AMERICA INC"", ""city"": ""NEW YORK"", ""state"": ""NY"", ""zip"": ""10018""}"
16366,"{""name"": ""NATIONAL KIDNEY FOUNDATION INC"", ""city"": ""NEW YORK"", ""state"": ""NY"", ""zip"": ""10016""}"
16375,"{""name"": ""PLANNED PARENTHOOD OF MICHIGAN"", ""city"": ""ANN ARBOR"", ""state"": ""MI"", ""zip"": ""48106""}"
16452,"{""name"": ""NEW YORK SYNAGOGUE AND TORAH CENTER"", ""city"": ""BROOKLYN"", ""state"": ""NY"", ""zip"": ""11213""}"
16543,"{""name"": ""DOG RANCH RESCUE INC"", ""city"": ""ANNA"", ""state"": ""TX"", ""zip"": ""75409""}"
16554,"{""name"": ""PLANNED PARENTHOOD SOUTHEAST INC"", ""city"": ""ATLANTA"", ""state"": ""GA"", ""zip"": ""30303""}"
16884,"{""name"": ""GIVEDIRECTLY INC"", ""city"": ""NEW YORK"", ""state"": ""NY"", ""zip"": ""10008""}"
16952,"{""name"": ""THE EHLERS-DANLOS SOCIETY"", ""city"": ""NEW YORK"", ""state"": ""NY"", ""zip"": ""10013""}"
16972,"{""name"": ""ROD RYAN SHOW CARES INC"", ""city"": ""HOUSTON"", ""state"": ""TX"", ""zip"": ""77007""}"
17091,"{""name"": ""MERCY FOR ANIMALS"", ""city"": ""HAGERSTOWN"", ""state"": ""MD"", ""zip"": ""21740""}"
17153,"{""name"": ""PLANNED PARENTHOOD OF GREATER OHIO"", ""city"": ""COLUMBUS"", ""state"": ""OH"", ""zip"": ""43215""}"
17213,"{""name"": ""NAVY SEAL FOUNDATION"", ""city"": ""VIRGINIA BEACH"", ""state"": ""VA"", ""zip"": ""23459""}"
17235,"{""name"": ""EOD WARRIOR FOUNDATION"", ""city"": ""NICEVILLE"", ""state"": ""FL"", ""zip"": ""32578""}"
17309,"{""name"": ""PLANNED PARENTHOOD OF ARIZONA INC"", ""city"": ""PHOENIX"", ""state"": ""AZ"", ""zip"": ""85014""}"
17323,"{""name"": ""THE SALVATION ARMY A CALIFORNIA CORPORATION"", ""city"": ""RANCHO PALOS VERDES"", ""state"": ""CA"", ""zip"": ""90275""}"
17329,"{""name"": ""THE ASHER HOUSE"", ""city"": ""ESTACADA"", ""state"": ""OR"", ""zip"": ""97023""}"
17347,"{""name"": ""HUONG DAO VIPASSANA BHAVANA CENTER INC"", ""city"": ""FORT WORTH"", ""state"": ""TX"", ""zip"": ""76105""}"
17380,"{""name"": ""WORD ON FIRE CATHOLIC MINISTRIES"", ""city"": ""ELK GROVE VILLAGE"", ""state"": ""IL"", ""zip"": ""60007""}"
17571,"{""name"": ""ACLU FOUNDATION OF TEXAS"", ""city"": ""HOUSTON"", ""state"": ""TX"", ""zip"": ""77288""}"
17677,"{""name"": ""TWLOHA INC"", ""city"": ""MELBOURNE"", ""state"": ""FL"", ""zip"": ""32902""}"
17730,"{""name"": ""ALEX'S LEMONADE STAND FOUNDATION FOR CHILDHOOD CANCER"", ""city"": ""WYNNEWOOD"", ""state"": ""PA"", ""zip"": ""19096""}"
17736,"{""name"": ""ANDREW WOMMACK MINISTRIES INC"", ""city"": ""WOODLAND PARK"", ""state"": ""CO"", ""zip"": ""80863""}"
17811,"{""name"": ""CHILDREN'S TUMOR FOUNDATION"", ""city"": ""NEW YORK"", ""state"": ""NY"", ""zip"": ""10017""}"
17852,"{""name"": ""LIGONIER MINISTRIES INC"", ""city"": ""SANFORD"", ""state"": ""FL"", ""zip"": ""32771""}"
17864,"{""name"": ""NATIONAL VACCINE INFORMATION CENTER"", ""city"": ""STERLING"", ""state"": ""VA"", ""zip"": ""20166""}"
17894,"{""name"": ""BIG FLUFFY DOG RESCUE"", ""city"": ""NASHVILLE"", ""state"": ""TN"", ""zip"": ""37203""}"
17916,"{""name"": ""CONGREGATION KOL SHIMSHON INC"", ""city"": ""LAKEWOOD"", ""state"": ""NJ"", ""zip"": ""08701""}"
18105,"{""name"": ""CITY OF HOPE"", ""city"": ""DUARTE"", ""state"": ""CA"", ""zip"": ""91010""}"
18279,"{""name"": ""THE NORML FOUNDATION"", ""city"": ""WASHINGTON"", ""state"": ""DC"", ""zip"": ""20005""}"
18329,"{""name"": ""MARC LUSTGARTEN PANCREATIC CANCER FOUNDATION"", ""city"": ""WOODBURY"", ""state"": ""NY"", ""zip"": ""11797""}"
18837,"{""name"": ""TURTLE MOUNTAIN ANIMAL RESCUE"", ""city"": ""ST JOHN"", ""state"": ""ND"", ""zip"": ""58369""}"
19008,"{""name"": ""FRENCH BULLDOG RESCUE NETWORK A NONPROFIT CORPORATION"", ""city"": ""WEST HARTFORD"", ""state"": ""CT"", ""zip"": ""06117""}"
19154,"{""name"": ""MEMORIAL SLOAN KETTERING CANCER CENTER"", ""city"": ""NEW YORK"", ""state"": ""NY"", ""zip"": ""10087""}"
19284,"{""name"": ""UNITED SERVICE ORGANIZATIONS INC (USO WORLD HEADQUARTERS)"", ""city"": ""ARLINGTON"", ""state"": ""VA"", ""zip"": ""22201""}"
19341,"{""name"": ""HUMANE SOCIETY OF UTAH"", ""city"": ""MURRAY"", ""state"": ""UT"", ""zip"": ""84107""}"
19488,"{""name"": ""BARB'S DOG RESCUE INC"", ""city"": ""LUKEVILLE"", ""state"": ""AZ"", ""zip"": ""85341""}"
19506,"{""name"": ""LUPUS FOUNDATION OF AMERICA INC"", ""city"": ""WASHINGTON"", ""state"": ""DC"", ""zip"": ""20037""}"
19621,"{""name"": ""PLANNED PARENTHOOD GREAT NORTHWEST HAWAII ALASKA INDIANA KENTUCKY"", ""city"": ""SEATTLE"", ""state"": ""WA"", ""zip"": ""98122""}"
19671,"{""name"": ""RAPE ABUSE & INCEST NATIONAL NETWORK"", ""city"": ""WASHINGTON"", ""state"": ""DC"", ""zip"": ""20005""}"
19748,"{""name"": ""MARLEYS MUTTS DOG RESCUE"", ""city"": ""TEHACHAPI"", ""state"": ""CA"", ""zip"": ""93561""}"
19783,"{""name"": ""CANINE COMPANIONS FOR INDEPENDENCE"", ""city"": ""SANTA ROSA"", ""state"": ""CA"", ""zip"": ""95407""}"
19879,"{""name"": ""ADVENTIST DEVELOPMENT AND RELIEF AGENCY INTERNATIONAL"", ""city"": ""SILVER SPRING"", ""state"": ""MD"", ""zip"": ""20904""}"
19953,"{""name"": ""THE WILDCAT SANCTUARY"", ""city"": ""SANDSTONE"", ""state"": ""MN"", ""zip"": ""55072""}"
19976,"{""name"": ""PLANNED PARENTHOOD NORTHERN CALIFORNIA"", ""city"": ""CONCORD"", ""state"": ""CA"", ""zip"": ""94520""}"
19982,"{""name"": ""AMYOTROPHIC LATERAL SCLEROSIS ASSOCIATION"", ""city"": ""ARLINGTON"", ""state"": ""VA"", ""zip"": ""22209""}"
20007,"{""name"": ""PKD FOUNDATION"", ""city"": ""KANSAS CITY"", ""state"": ""MO"", ""zip"": ""64131""}"
20070,"{""name"": ""CHILDREN'S HEALTH DEFENSE"", ""city"": ""FRANKLIN LAKES"", ""state"": ""NJ"", ""zip"": ""07411""}"
20168,"{""name"": ""ACLU FOUNDATION OF SOUTHERN CALIFORNIA"", ""city"": ""LOS ANGELES"", ""state"": ""CA"", ""zip"": ""90017""}"
20377,"{""name"": ""BABY2BABY"", ""city"": ""LOS ANGELES"", ""state"": ""CA"", ""zip"": ""90016""}"
20433,"{""name"": ""MUTTVILLE"", ""city"": ""SAN FRANCISCO"", ""state"": ""CA"", ""zip"": ""94141""}"
20450,"{""name"": ""PARKINSON'S FOUNDATION INC"", ""city"": ""NEW YORK"", ""state"": ""NY"", ""zip"": ""10018""}"
20484,"{""name"": ""YOUNG LIFE"", ""city"": ""COLORADO SPRINGS"", ""state"": ""CO"", ""zip"": ""80903""}"
20787,"{""name"": ""PLANNED PARENTHOOD OF THE ROCKY MOUNTAINS INC"", ""city"": ""DENVER"", ""state"": ""CO"", ""zip"": ""80207""}"
20834,"{""name"": ""ALWAYS & FUREVER MIDWEST ANIMAL SANCTUARY INC"", ""city"": ""SPRING HILL"", ""state"": ""KS"", ""zip"": ""66083""}"
21024,"{""name"": ""BUBBA THE LOVE SPONGE FOUNDATION INC"", ""city"": ""TAMPA"", ""state"": ""FL"", ""zip"": ""33609""}"
21061,"{""name"": ""THE PUG QUEEN FOUNDATION INC"", ""city"": ""LOS ANGELES"", ""state"": ""CA"", ""zip"": ""90049""}"
21204,"{""name"": ""CHIVE CHARITIES"", ""city"": ""AUSTIN"", ""state"": ""TX"", ""zip"": ""78701""}"
21248,"{""name"": ""BALTIMORE ANIMAL RESCUE AND CARE SHELTER INC"", ""city"": ""BALTIMORE"", ""state"": ""MD"", ""zip"": ""21225""}"
21276,"{""name"": ""SEA SHEPHERD CONSERVATION SOCIETY"", ""city"": ""ALEXANDRIA"", ""state"": ""VA"", ""zip"": ""22306""}"
21287,"{""name"": ""DERECH HACHAIM FUND INC"", ""city"": ""LAKEWOOD"", ""state"": ""NJ"", ""zip"": ""08701""}"
21387,"{""name"": ""NATIONAL PARKS CONSERVATION ASSOCIATION"", ""city"": ""WASHINGTON"", ""state"": ""DC"", ""zip"": ""20001""}"
21504,"{""name"": ""NAVY-MARINE CORPS RELIEF SOCIETY"", ""city"": ""ARLINGTON"", ""state"": ""VA"", ""zip"": ""22203""}"
21689,"{""name"": ""AMERICAN ASSOCIATION OF NURSE ANESTHETISTS FOUNDATION"", ""city"": ""PARK RIDGE"", ""state"": ""IL"", ""zip"": ""60068""}"
21694,"{""name"": ""NORTH SHORE ANIMAL LEAGUE AMERICA INC"", ""city"": ""PORT WASHINGTON"", ""state"": ""NY"", ""zip"": ""11050""}"
21708,"{""name"": ""THE SALVATION ARMY A GEORGIA CORPORATION"", ""city"": ""BROOKHAVEN"", ""state"": ""GA"", ""zip"": ""30329""}"
21880,"{""name"": ""LIVE ACTION"", ""city"": ""ARLINGTON"", ""state"": ""VA"", ""zip"": ""22201""}"
21907,"{""name"": ""LUDWIG VON MISES INSTITUTE FOR AUSTRIAN ECONOMICS INC"", ""city"": ""AUBURN"", ""state"": ""AL"", ""zip"": ""36832""}"
21970,"{""name"": ""MULTIPLE MYELOMA RESEARCH FOUNDATION INC"", ""city"": ""NORWALK"", ""state"": ""CT"", ""zip"": ""06851""}"
22010,"{""name"": ""BERT'S BIG ADVENTURE INC"", ""city"": ""ATLANTA"", ""state"": ""GA"", ""zip"": ""30342""}"
22036,"{""name"": ""GIDEONS INTERNATIONAL"", ""city"": ""NASHVILLE"", ""state"": ""TN"", ""zip"": ""37214""}"
22104,"{""name"": ""OPERATION KINDNESS"", ""city"": ""CARROLLTON"", ""state"": ""TX"", ""zip"": ""75006""}"
22820,"{""name"": ""CHAI-LIFE LINE DBA CHAI LIFELINE INC"", ""city"": ""NEW YORK"", ""state"": ""NY"", ""zip"": ""10001""}"
23288,"{""name"": ""HUMANE SOCIETY FOR SEATTLE-KING CO"", ""city"": ""BELLEVUE"", ""state"": ""WA"", ""zip"": ""98005""}"
23704,"{""name"": ""PLANNED PARENTHOOD GLOBAL INC"", ""city"": ""NEW YORK"", ""state"": ""NY"", ""zip"": ""10038""}"
23752,"{""name"": ""DENVER DUMB FRIENDS LEAGUE"", ""city"": ""DENVER"", ""state"": ""CO"", ""zip"": ""80231""}"
23789,"{""name"": ""FOOD FOR THE POOR INC"", ""city"": ""COCONUT CREEK"", ""state"": ""FL"", ""zip"": ""33073""}"
23830,"{""name"": ""K9S FOR WARRIORS"", ""city"": ""PONTE VEDRA"", ""state"": ""FL"", ""zip"": ""32081""}"
23852,"{""name"": ""KHAN ACADEMY"", ""city"": ""MOUNTAIN VIEW"", ""state"": ""CA"", ""zip"": ""94042""}"
24157,"{""name"": ""PARTNERS IN HEALTH A NONPROFIT CORPORATION"", ""city"": ""BOSTON"", ""state"": ""MA"", ""zip"": ""02199""}"
24223,"{""name"": ""PTSD FOUNDATION OF AMERICA"", ""city"": ""HOUSTON"", ""state"": ""TX"", ""zip"": ""77064""}"
24348,"{""name"": ""NATIONAL MILL DOG RESCUE"", ""city"": ""COLORADO SPRINGS"", ""state"": ""CO"", ""zip"": ""80908""}"
24622,"{""name"": ""FARM SANCTUARY INC"", ""city"": ""WATKINS GLEN"", ""state"": ""NY"", ""zip"": ""14891""}"
25048,"{""name"": ""CONGREGATION YESHIVA EVEN YISROEL"", ""city"": ""LAKEWOOD"", ""state"": ""NJ"", ""zip"": ""08701""}"
25180,"{""name"": ""METAVIVOR RESEARCH AND SUPPORT INC"", ""city"": ""ANNAPOLIS"", ""state"": ""MD"", ""zip"": ""21401""}"
25423,"{""name"": ""THE D GARY YOUNG YOUNG LIVING FOUNDATION"", ""city"": ""LEHI"", ""state"": ""UT"", ""zip"": ""84043""}"
25431,"{""name"": ""OREGON HUMANE SOCIETY"", ""city"": ""PORTLAND"", ""state"": ""OR"", ""zip"": ""97211""}"
25534,"{""name"": ""LEHIGH DIALOGUE CENTER"", ""city"": ""BETHLEHEM"", ""state"": ""PA"", ""zip"": ""18017""}"
26078,"{""name"": ""MULTIDISCIPLINARY ASSOCIATION FOR PSYCHEDELIC STUDIES"", ""city"": ""SAN JOSE"", ""state"": ""CA"", ""zip"": ""95117""}"
26096,"{""name"": ""NATIONAL PARK FOUNDATION"", ""city"": ""WASHINGTON"", ""state"": ""DC"", ""zip"": ""20005""}"
26355,"{""name"": ""KRADDICK FUND FOR KIDS DBA KIDD'S KIDS"", ""city"": ""LAS COLINAS"", ""state"": ""TX"", ""zip"": ""75039""}"
26708,"{""name"": ""FAMILY WORSHIP CENTER CHURCH INC"", ""city"": ""BATON ROUGE"", ""state"": ""LA"", ""zip"": ""70810""}"
26855,"{""name"": ""PRAGER UNIVERSITY FOUNDATION"", ""city"": ""SHERMAN OAKS"", ""state"": ""CA"", ""zip"": ""91403""}"
26868,"{""name"": ""WORLDREADER ORG"", ""city"": ""SAN FRANCISCO"", ""state"": ""CA"", ""zip"": ""94103""}"
27102,"{""name"": ""SAN DIEGO HUMANE SOCIETY"", ""city"": ""SAN DIEGO"", ""state"": ""CA"", ""zip"": ""92110""}"
27262,"{""name"": ""AGA KHAN FOUNDATION USA"", ""city"": ""WASHINGTON"", ""state"": ""DC"", ""zip"": ""20006""}"
27698,"{""name"": ""SALVATION ARMY NATIONAL CORP"", ""city"": ""ALEXANDRIA"", ""state"": ""VA"", ""zip"": ""22314""}"
28041,"{""name"": ""ST JUDE CHILDRENS CHARITIES INC"", ""city"": ""NEW CANAAN"", ""state"": ""CT"", ""zip"": ""06840""}"
28577,"{""name"": ""WORLD ANIMAL PROTECTION"", ""city"": ""NEW YORK"", ""state"": ""NY"", ""zip"": ""10018""}"
28690,"{""name"": ""SIERRA CLUB FOUNDATION"", ""city"": ""OAKLAND"", ""state"": ""CA"", ""zip"": ""94612""}"
28795,"{""name"": ""AGAINST MALARIA FOUNDATION (US)"", ""city"": ""KANSAS CITY"", ""state"": ""MO"", ""zip"": ""64108""}"
29010,"{""name"": ""MASSACHUSETTS SOCIETY FOR THE PREVENTION OF CRUELTY TO ANIMALS"", ""city"": ""BOSTON"", ""state"": ""MA"", ""zip"": ""02130""}"
29097,"{""name"": ""FOCUS ON THE FAMILY"", ""city"": ""COLORADO SPRINGS"", ""state"": ""CO"", ""zip"": ""80920""}"
29233,"{""name"": ""THE DAVID SHELDRICK WILDLIFE TRUST USA INC"", ""city"": ""LAGUNA HILLS"", ""state"": ""CA"", ""zip"": ""92653""}"
29370,"{""name"": ""DANA-FARBER CANCER INSTITUTE INC"", ""city"": ""BOSTON"", ""state"": ""MA"", ""zip"": ""02215""}"
29451,"{""name"": ""INTERNATIONAL MISSION BOARD OF THE SOUTHERN BAPTIST CONVENTION"", ""city"": ""RICHMOND"", ""state"": ""VA"", ""zip"": ""23230""}"
29508,"{""name"": ""KIVA MICROFUNDS"", ""city"": ""SAN FRANCISCO"", ""state"": ""CA"", ""zip"": ""94103""}"
30107,"{""name"": ""WIKIMEDIA FOUNDATION INC"", ""city"": ""WASHINGTON"", ""state"": ""DC"", ""zip"": ""20090""}"
30111,"{""name"": ""ELEPHANT SANCTUARY"", ""city"": ""HOHENWALD"", ""state"": ""TN"", ""zip"": ""38462""}"
30290,"{""name"": ""ORPHAN KITTEN CLUB INC"", ""city"": ""SPRING VALLEY"", ""state"": ""CA"", ""zip"": ""91976""}"
30437,"{""name"": ""INTERNATIONAL RESCUE COMMITTEE INC"", ""city"": ""NEW YORK"", ""state"": ""NY"", ""zip"": ""10168""}"
30468,"{""name"": ""FEED MY STARVING CHILDREN"", ""city"": ""COON RAPIDS"", ""state"": ""MN"", ""zip"": ""55433""}"
30472,"{""name"": ""SEATTLE CHILDRENS HOSPITAL FOUNDATION"", ""city"": ""SEATTLE"", ""state"": ""WA"", ""zip"": ""98145""}"
31601,"{""name"": ""PAWS CHICAGO"", ""city"": ""CHICAGO"", ""state"": ""IL"", ""zip"": ""60614""}"
32189,"{""name"": ""ARIZONA HUMANE SOCIETY"", ""city"": ""PHOENIX"", ""state"": ""AZ"", ""zip"": ""85041""}"
32199,"{""name"": ""NRA CIVIL RIGHTS DEFENSE FUND"", ""city"": ""FAIRFAX"", ""state"": ""VA"", ""zip"": ""22030""}"
32358,"{""name"": ""GIVE KIDS THE WORLD INC"", ""city"": ""KISSIMMEE"", ""state"": ""FL"", ""zip"": ""34746""}"
32451,"{""name"": ""NATIONAL PUBLIC RADIO INC"", ""city"": ""WASHINGTON"", ""state"": ""DC"", ""zip"": ""20002""}"
33093,"{""name"": ""HILLEL ACADEMY"", ""city"": ""DENVER"", ""state"": ""CO"", ""zip"": ""80246""}"
33362,"{""name"": ""BAT WORLD SANCTUARY"", ""city"": ""WEATHERFORD"", ""state"": ""TX"", ""zip"": ""76088""}"
33857,"{""name"": ""DISABLED AMERICAN VETERANS CHARITABLE SERVICE TRUST INC"", ""city"": ""ERLANGER"", ""state"": ""KY"", ""zip"": ""41018""}"
34819,"{""name"": ""SEMPER FI & AMERICA'S FUND"", ""city"": ""OCEANSIDE"", ""state"": ""CA"", ""zip"": ""92057""}"
35059,"{""name"": ""NAACP LEGAL DEFENSE & EDUC FUND INC"", ""city"": ""NEW YORK"", ""state"": ""NY"", ""zip"": ""10006""}"
35258,"{""name"": ""THE VOICE OF THE MARTYRS INC"", ""city"": ""BARTLESVILLE"", ""state"": ""OK"", ""zip"": ""74006""}"
35650,"{""name"": ""BLIND CAT RESCUE & SANCTUARY INC"", ""city"": ""ST PAULS"", ""state"": ""NC"", ""zip"": ""28384""}"
36619,"{""name"": ""MUSCULAR DYSTROPHY ASSOCIATION"", ""city"": ""CHICAGO"", ""state"": ""IL"", ""zip"": ""60603""}"
36901,"{""name"": ""PANCREATIC CANCER ACTION NETWORK INC"", ""city"": ""MANHATTAN BEACH"", ""state"": ""CA"", ""zip"": ""90266""}"
37220,"{""name"": ""THE WILD ANIMAL SANCTUARY"", ""city"": ""KEENESBURG"", ""state"": ""CO"", ""zip"": ""80643""}"
37953,"{""name"": ""STRAY RESCUE OF ST LOUIS"", ""city"": ""ST LOUIS"", ""state"": ""MO"", ""zip"": ""63103""}"
39815,"{""name"": ""NATIONAL FOUNDATION FOR GUN RIGHTS INC"", ""city"": ""LOVELAND"", ""state"": ""CO"", ""zip"": ""80539""}"
40716,"{""name"": ""CRITICAL ROLE FOUNDATION"", ""city"": ""BURBANK"", ""state"": ""CA"", ""zip"": ""91504""}"
41512,"{""name"": ""WORLD CENTRAL KITCHEN INC"", ""city"": ""WASHINGTON"", ""state"": ""DC"", ""zip"": ""20001""}"
41828,"{""name"": ""ISLAMIC RELIEF USA"", ""city"": ""ALEXANDRIA"", ""state"": ""VA"", ""zip"": ""22304""}"
42002,"{""name"": ""BREAST CANCER RESEARCH FOUNDATION"", ""city"": ""NEW YORK"", ""state"": ""NY"", ""zip"": ""10036""}"
42844,"{""name"": ""MARCH OF DIMES INC"", ""city"": ""ARLINGTON"", ""state"": ""VA"", ""zip"": ""22202""}"
42870,"{""name"": ""FISHER HOUSE FOUNDATION INC"", ""city"": ""ROCKVILLE"", ""state"": ""MD"", ""zip"": ""20852""}"
42938,"{""name"": ""ARMENIA FUND INC"", ""city"": ""GLENDALE"", ""state"": ""CA"", ""zip"": ""91206""}"
43604,"{""name"": ""CATHOLIC RELIEF SERVICES INC"", ""city"": ""HARLAN"", ""state"": ""IA"", ""zip"": ""51593""}"
43696,"{""name"": ""FRIENDS OF MAYANOT INSTITUTE INC"", ""city"": ""NEW YORK"", ""state"": ""NY"", ""zip"": ""10003""}"
45301,"{""name"": ""BUNNY'S BUDDIES"", ""city"": ""SAN DIEGO"", ""state"": ""CA"", ""zip"": ""92120""}"
48133,"{""name"": ""CRPA FOUNDATION"", ""city"": ""FULLERTON"", ""state"": ""CA"", ""zip"": ""92835""}"
48393,"{""name"": ""SMILE TRAIN INC"", ""city"": ""NEW YORK"", ""state"": ""NY"", ""zip"": ""10017""}"
48751,"{""name"": ""BEAGLE FREEDOM PROJECT"", ""city"": ""VALLEY VILLAGE"", ""state"": ""CA"", ""zip"": ""91607""}"
50406,"{""name"": ""AUSTIN PETS ALIVE"", ""city"": ""AUSTIN"", ""state"": ""TX"", ""zip"": ""78703""}"
50537,"{""name"": ""THE CAT HOUSE ON THE KINGS INC"", ""city"": ""PARLIER"", ""state"": ""CA"", ""zip"": ""93648""}"
50604,"{""name"": ""ENVIRONMENTAL WORKING GROUP"", ""city"": ""WASHINGTON"", ""state"": ""DC"", ""zip"": ""20005""}"
50743,"{""name"": ""PLANNED PARENTHOOD OF GREATER TEXAS"", ""city"": ""DALLAS"", ""state"": ""TX"", ""zip"": ""75231""}"
54623,"{""name"": ""CARTHAY CIRCLE CHABAD"", ""city"": ""LOS ANGELES"", ""state"": ""CA"", ""zip"": ""90035""}"
55713,"{""name"": ""BOYS & GIRLS CLUBS OF AMERICA"", ""city"": ""ATLANTA"", ""state"": ""GA"", ""zip"": ""30309""}"
56137,"{""name"": ""OLD FRIENDS SENIOR DOGS INC"", ""city"": ""MOUNT JULIET"", ""state"": ""TN"", ""zip"": ""37122""}"
57918,"{""name"": ""AUTISM SPEAKS"", ""city"": ""PRINCETON"", ""state"": ""NJ"", ""zip"": ""08540""}"
60077,"{""name"": ""THE NRA FOUNDATION INC"", ""city"": ""FAIRFAX"", ""state"": ""VA"", ""zip"": ""22030""}"
60220,"{""name"": ""JUDICIAL WATCH INC"", ""city"": ""WASHINGTON"", ""state"": ""DC"", ""zip"": ""20024""}"
60594,"{""name"": ""FREEDOM FROM RELIGION FOUNDATION INC"", ""city"": ""MADISON"", ""state"": ""WI"", ""zip"": ""53701""}"
61745,"{""name"": ""VETERAN TICKETS FOUNDATION"", ""city"": ""TEMPE"", ""state"": ""AZ"", ""zip"": ""85281""}"
62073,"{""name"": ""STEPHEN SILLER TUNNEL TO TOWERS FOUNDATION"", ""city"": ""STATEN ISLAND"", ""state"": ""NY"", ""zip"": ""10306""}"
63655,"{""name"": ""ST JUDE HOSPITAL INC"", ""city"": ""FULLERTON"", ""state"": ""CA"", ""zip"": ""92835""}"
63784,"{""name"": ""PEOPLE FOR THE ETHICAL TREATMENT OF ANIMALS (PETA)"", ""city"": ""NORFOLK"", ""state"": ""VA"", ""zip"": ""23510""}"
64530,"{""name"": ""INTERNATIONAL JUSTICE MISSION"", ""city"": ""WASHINGTON"", ""state"": ""DC"", ""zip"": ""20037""}"
65135,"{""name"": ""HUMAN RIGHTS CAMPAIGN FOUNDATION"", ""city"": ""WASHINGTON"", ""state"": ""DC"", ""zip"": ""20036""}"
65141,"{""name"": ""MICHAEL J FOX FOUNDATION FOR PARKINSONS RESEARCH"", ""city"": ""NEW YORK"", ""state"": ""NY"", ""zip"": ""10163""}"
65944,"{""name"": ""SOUTHERN POVERTY LAW CENTER INC"", ""city"": ""MONTGOMERY"", ""state"": ""AL"", ""zip"": ""36104""}"
66397,"{""name"": ""BETH TEFILLA OF MONSEY"", ""city"": ""MONSEY"", ""state"": ""NY"", ""zip"": ""10952""}"
67143,"{""name"": ""CROHN'S & COLITIS FOUNDATION INC"", ""city"": ""NEW YORK"", ""state"": ""NY"", ""zip"": ""10017""}"
70434,"{""name"": ""WORLD VISION INC"", ""city"": ""FEDERAL WAY"", ""state"": ""WA"", ""zip"": ""98063""}"
73134,"{""name"": ""PTA TEXAS CONGRESS"", ""city"": ""ARGYLE"", ""state"": ""TX"", ""zip"": ""76226""}"
73388,"{""name"": ""GARY SINISE FOUNDATION"", ""city"": ""NASHVILLE"", ""state"": ""TN"", ""zip"": ""37204""}"
74082,"{""name"": ""NATURAL RESOURCES DEFENSE COUNCIL INC"", ""city"": ""NEW YORK"", ""state"": ""NY"", ""zip"": ""10011""}"
76976,"{""name"": ""BIG CAT RESCUE CORP"", ""city"": ""TAMPA"", ""state"": ""FL"", ""zip"": ""33625""}"
78843,"{""name"": ""AMERICAN DIABETES ASSOCIATION"", ""city"": ""ARLINGTON"", ""state"": ""VA"", ""zip"": ""22202""}"
82092,"{""name"": ""PROJECT VERITAS"", ""city"": ""MAMARONECK"", ""state"": ""NY"", ""zip"": ""10543""}"
83067,"{""name"": ""CHILD'S PLAY"", ""city"": ""REDMOND"", ""state"": ""WA"", ""zip"": ""98052""}"
83261,"{""name"": ""FEED THE CHILDREN INC"", ""city"": ""OKLAHOMA CITY"", ""state"": ""OK"", ""zip"": ""73107""}"
86545,"{""name"": ""PLANNED PARENTHOOD FEDERATION OF AMERICA INC"", ""city"": ""NEW YORK"", ""state"": ""NY"", ""zip"": ""10038""}"
87873,"{""name"": ""AMERICAN FOUNDATION FOR SUICIDE PREVENTION"", ""city"": ""NEW YORK"", ""state"": ""NY"", ""zip"": ""10038""}"
91460,"{""name"": ""MERCURY ONE INC"", ""city"": ""IRVING"", ""state"": ""TX"", ""zip"": ""75014""}"
93761,"{""name"": ""CYSTIC FIBROSIS FOUNDATION"", ""city"": ""BETHESDA"", ""state"": ""MD"", ""zip"": ""20814""}"
97399,"{""name"": ""UNITED NEGRO COLLEGE FUND INC"", ""city"": ""WASHINGTON"", ""state"": ""DC"", ""zip"": ""20001""}"
98216,"{""name"": ""MIKEROWEWORKS FOUNDATION"", ""city"": ""SANTA MONICA"", ""state"": ""CA"", ""zip"": ""90401""}"
98698,"{""name"": ""OPERATION SMILE INC"", ""city"": ""VIRGINIA BEACH"", ""state"": ""VA"", ""zip"": ""23453""}"
110039,"{""name"": ""SECOND AMENDMENT FOUNDATION"", ""city"": ""BELLEVUE"", ""state"": ""WA"", ""zip"": ""98005""}"
110760,"{""name"": ""THE SATANIC TEMPLE"", ""city"": ""SALEM"", ""state"": ""MA"", ""zip"": ""01970""}"
111619,"{""name"": ""FPC ACTION FOUNDATION"", ""city"": ""LAS VEGAS"", ""state"": ""NV"", ""zip"": ""89149""}"
113379,"{""name"": ""AMERICAN HEART ASSOCIATION INC"", ""city"": ""DALLAS"", ""state"": ""TX"", ""zip"": ""75231""}"
115457,"{""name"": ""UNICEF USA"", ""city"": ""NEW YORK"", ""state"": ""NY"", ""zip"": ""10038""}"
119357,"{""name"": ""COMPASSION INTERNATIONAL INC"", ""city"": ""COLORADO SPRINGS"", ""state"": ""CO"", ""zip"": ""80921""}"
119445,"{""name"": ""SHRINERS HOSPITALS FOR CHILDREN"", ""city"": ""TAMPA"", ""state"": ""FL"", ""zip"": ""33607""}"